{
    "links": {
        "self": "http://www.neowsapp.com/rest/v1/neo/3711783?api_key=iIulBulltgU6a56xZRHN4H3l9WmuAYTsLGpBGhQ2"
    },
    "id": "3711783",
    "neo_reference_id": "3711783",
    "name": "(2015 DN155)",
    "designation": "2015 DN155",
    "nasa_jpl_url": "http://ssd.jpl.nasa.gov/sbdb.cgi?sstr=3711783",
    "absolute_magnitude_h": 23.9,
    "estimated_diameter": {
        "kilometers": {
            "estimated_diameter_min": 0.04411182,
            "estimated_diameter_max": 0.0986370281
        },
        "meters": {
            "estimated_diameter_min": 44.1118199997,
            "estimated_diameter_max": 98.6370281305
        },
        "miles": {
            "estimated_diameter_min": 0.0274098057,
            "estimated_diameter_max": 0.0612901888
        },
        "feet": {
            "estimated_diameter_min": 144.7238235278,
            "estimated_diameter_max": 323.6123073718
        }
    },
    "is_potentially_hazardous_asteroid": false,
    "close_approach_data": [
        {
            "close_approach_date": "2015-02-19",
            "close_approach_date_full": "2015-Feb-19 03:52",
            "epoch_date_close_approach": 1424317920000,
            "relative_velocity": {
                "kilometers_per_second": "6.9512430937",
                "kilometers_per_hour": "25024.4751374042",
                "miles_per_hour": "15549.2356763499"
            },
            "miss_distance": {
                "astronomical": "0.1211161849",
                "lunar": "47.1141959261",
                "kilometers": "18118723.283566163",
                "miles": "11258452.5870245294"
            },
            "orbiting_body": "Earth"
        },
        {
            "close_approach_date": "2190-03-11",
            "close_approach_date_full": "2190-Mar-11 15:16",
            "epoch_date_close_approach": 6948602160000,
            "relative_velocity": {
                "kilometers_per_second": "12.4688858726",
                "kilometers_per_hour": "44887.9891414604",
                "miles_per_hour": "27891.6508084813"
            },
            "miss_distance": {
                "astronomical": "0.3445421271",
                "lunar": "134.0268874419",
                "kilometers": "51542768.339429277",
                "miles": "32027191.1255349426"
            },
            "orbiting_body": "Earth"
        }
    ],
    "orbital_data": {
        "orbit_id": "10",
        "orbit_determination_date": "2017-04-06 08:35:30",
        "first_observation_date": "2015-02-20",
        "last_observation_date": "2015-03-20",
        "data_arc_in_days": 28,
        "observations_used": 33,
        "orbit_uncertainty": "7",
        "minimum_orbit_intersection": ".116896",
        "jupiter_tisserand_invariant": "3.353",
        "epoch_osculation": "2459000.5",
        "eccentricity": ".5294377976053358",
        "semi_major_axis": "2.333132500741641",
        "inclination": "8.914530207357645",
        "ascending_node_longitude": "342.3569680190798",
        "orbital_period": "1301.689890941293",
        "perihelion_distance": "1.097883968027557",
        "perihelion_argument": "160.9172745947419",
        "aphelion_distance": "3.568381033455725",
        "perihelion_time": "2458368.739096142210",
        "mean_anomaly": "174.7220493694853",
        "mean_motion": ".2765635674866252",
        "equinox": "J2000",
        "orbit_class": {
            "orbit_class_type": "AMO",
            "orbit_class_description": "Near-Earth asteroid orbits similar to that of 1221 Amor",
            "orbit_class_range": "1.017 AU < q (perihelion) < 1.3 AU"
        }
    },
    "is_sentry_object": false
}